{
  "type": "FeatureCollection",
  "features": [
    {
      "type": "Feature",
      "properties": {
        "norad_id": 38250,
        "name": "BEIDOU-2 M3 (C11)",
        "group": "beidou",
        "lat": 39.27954286626994,
        "lon": 97.11651745030474,
        "alt_km": 21578.70717086002,
        "timestamp": "2025-12-25T09:48:52.555603+00:00",
        "meta_object_name": "BEIDOU-2 M3 (C11)",
        "meta_object_id": "2012-018A",
        "meta_epoch": "2025-12-24T03:22:03.617760",
        "meta_mean_motion": 1.86230154,
        "meta_eccentricity": 0.00241099,
        "meta_inclination": 55.9106,
        "meta_ra_of_asc_node": 310.7747,
        "meta_arg_of_pericenter": 275.3713,
        "meta_mean_anomaly": 84.3565,
        "meta_ephemeris_type": 0,
        "meta_classification_type": "U",
        "meta_norad_cat_id": 38250,
        "meta_element_set_no": 999,
        "meta_rev_at_epoch": 9268,
        "meta_bstar": 0,
        "meta_mean_motion_dot": -5.3e-07,
        "meta_mean_motion_ddot": 0,
        "tle_line1": "1 38250U 12018A   25358.14031965 -.00000053  00000+0  00000+0 0  9999",
        "tle_line2": "2 38250  55.9106 310.7747 0024109 275.3713  84.3565  1.86230154 92685"
      },
      "geometry": {
        "type": "Point",
        "coordinates": [
          97.11651745030474,
          39.27954286626994
        ]
      }
    },
    {
      "type": "Feature",
      "properties": {
        "norad_id": 38251,
        "name": "BEIDOU-2 M4 (C12)",
        "group": "beidou",
        "lat": 3.481942942819483,
        "lon": 127.5743629036582,
        "alt_km": 21538.053726218885,
        "timestamp": "2025-12-25T09:48:52.555614+00:00",
        "meta_object_name": "BEIDOU-2 M4 (C12)",
        "meta_object_id": "2012-018B",
        "meta_epoch": "2025-12-24T01:44:14.261856",
        "meta_mean_motion": 1.86229893,
        "meta_eccentricity": 0.00152512,
        "meta_inclination": 55.8118,
        "meta_ra_of_asc_node": 310.0049,
        "meta_arg_of_pericenter": 279.3729,
        "meta_mean_anomaly": 80.4579,
        "meta_ephemeris_type": 0,
        "meta_classification_type": "U",
        "meta_norad_cat_id": 38251,
        "meta_element_set_no": 999,
        "meta_rev_at_epoch": 9268,
        "meta_bstar": 0,
        "meta_mean_motion_dot": -5.3e-07,
        "meta_mean_motion_ddot": 0,
        "tle_line1": "1 38251U 12018B   25358.07238729 -.00000053  00000+0  00000+0 0  9999",
        "tle_line2": "2 38251  55.8118 310.0049 0015251 279.3729  80.4579  1.86229893 92685"
      },
      "geometry": {
        "type": "Point",
        "coordinates": [
          127.5743629036582,
          3.481942942819483
        ]
      }
    },
    {
      "type": "Feature",
      "properties": {
        "norad_id": 38775,
        "name": "BEIDOU-2 M6 (C14)",
        "group": "beidou",
        "lat": 8.287387552843601,
        "lon": 74.21693453642236,
        "alt_km": 21498.664423618182,
        "timestamp": "2025-12-25T09:48:52.555625+00:00",
        "meta_object_name": "BEIDOU-2 M6 (C14)",
        "meta_object_id": "2012-050B",
        "meta_epoch": "2025-12-24T07:41:05.368128",
        "meta_mean_motion": 1.86230801,
        "meta_eccentricity": 0.00114872,
        "meta_inclination": 56.388,
        "meta_ra_of_asc_node": 68.6832,
        "meta_arg_of_pericenter": 343.1884,
        "meta_mean_anomaly": 16.8281,
        "meta_ephemeris_type": 0,
        "meta_classification_type": "U",
        "meta_norad_cat_id": 38775,
        "meta_element_set_no": 999,
        "meta_rev_at_epoch": 9005,
        "meta_bstar": 0,
        "meta_mean_motion_dot": -2.4e-07,
        "meta_mean_motion_ddot": 0,
        "tle_line1": "1 38775U 12050B   25358.32020102 -.00000024  00000+0  00000+0 0  9996",
        "tle_line2": "2 38775  56.3880  68.6832 0011487 343.1884  16.8281  1.86230801 90056"
      },
      "geometry": {
        "type": "Point",
        "coordinates": [
          74.21693453642236,
          8.287387552843601
        ]
      }
    },
    {
      "type": "Feature",
      "properties": {
        "norad_id": 38953,
        "name": "BEIDOU-2 G6 (C02)",
        "group": "beidou",
        "lat": -3.7525777566612972,
        "lon": -34.7890367519307,
        "alt_km": 35761.97848683586,
        "timestamp": "2025-12-25T09:48:52.555637+00:00",
        "meta_object_name": "BEIDOU-2 G6 (C02)",
        "meta_object_id": "2012-059A",
        "meta_epoch": "2025-12-25T01:00:51.717600",
        "meta_mean_motion": 1.00274262,
        "meta_eccentricity": 0.0007997,
        "meta_inclination": 3.9787,
        "meta_ra_of_asc_node": 75.3898,
        "meta_arg_of_pericenter": 294.4199,
        "meta_mean_anomaly": 183.1448,
        "meta_ephemeris_type": 0,
        "meta_classification_type": "U",
        "meta_norad_cat_id": 38953,
        "meta_element_set_no": 999,
        "meta_rev_at_epoch": 4816,
        "meta_bstar": 0,
        "meta_mean_motion_dot": -1.55e-06,
        "meta_mean_motion_ddot": 0,
        "tle_line1": "1 38953U 12059A   25359.04226525 -.00000155  00000+0  00000+0 0  9995",
        "tle_line2": "2 38953   3.9787  75.3898 0007997 294.4199 183.1448  1.00274262 48166"
      },
      "geometry": {
        "type": "Point",
        "coordinates": [
          -34.7890367519307,
          -3.7525777566612972
        ]
      }
    },
    {
      "type": "Feature",
      "properties": {
        "norad_id": 40549,
        "name": "BEIDOU-3S IGSO-1S (C31)",
        "group": "beidou",
        "lat": 28.236515359714286,
        "lon": -35.22481077141407,
        "alt_km": 35917.08760257722,
        "timestamp": "2025-12-25T09:48:52.555649+00:00",
        "meta_object_name": "BEIDOU-3S IGSO-1S (C31)",
        "meta_object_id": "2015-019A",
        "meta_epoch": "2025-12-18T19:55:38.829792",
        "meta_mean_motion": 1.00292047,
        "meta_eccentricity": 0.0036331,
        "meta_inclination": 49.5404,
        "meta_ra_of_asc_node": 297.6395,
        "meta_arg_of_pericenter": 194.0028,
        "meta_mean_anomaly": 349.3621,
        "meta_ephemeris_type": 0,
        "meta_classification_type": "U",
        "meta_norad_cat_id": 40549,
        "meta_element_set_no": 999,
        "meta_rev_at_epoch": 3926,
        "meta_bstar": 0,
        "meta_mean_motion_dot": -1.83e-06,
        "meta_mean_motion_ddot": 0,
        "tle_line1": "1 40549U 15019A   25352.83031053 -.00000183  00000+0  00000+0 0  9999",
        "tle_line2": "2 40549  49.5404 297.6395 0036331 194.0028 349.3621  1.00292047 39264"
      },
      "geometry": {
        "type": "Point",
        "coordinates": [
          -35.22481077141407,
          28.236515359714286
        ]
      }
    },
    {
      "type": "Feature",
      "properties": {
        "norad_id": 40748,
        "name": "BEIDOU-3S M2S (C58)",
        "group": "beidou",
        "lat": 30.734026010991442,
        "lon": -27.42284625548728,
        "alt_km": 21544.36188764598,
        "timestamp": "2025-12-25T09:48:52.555661+00:00",
        "meta_object_name": "BEIDOU-3S M2S (C58)",
        "meta_object_id": "2015-037A",
        "meta_epoch": "2025-12-24T19:32:44.901312",
        "meta_mean_motion": 1.86229543,
        "meta_eccentricity": 0.00118109,
        "meta_inclination": 55.028,
        "meta_ra_of_asc_node": 308.0499,
        "meta_arg_of_pericenter": 271.2412,
        "meta_mean_anomaly": 88.6304,
        "meta_ephemeris_type": 0,
        "meta_classification_type": "U",
        "meta_norad_cat_id": 40748,
        "meta_element_set_no": 999,
        "meta_rev_at_epoch": 7087,
        "meta_bstar": 0,
        "meta_mean_motion_dot": -5.3e-07,
        "meta_mean_motion_ddot": 0,
        "tle_line1": "1 40748U 15037A   25358.81440858 -.00000053  00000+0  00000+0 0  9997",
        "tle_line2": "2 40748  55.0280 308.0499 0011810 271.2412  88.6304  1.86229543 70879"
      },
      "geometry": {
        "type": "Point",
        "coordinates": [
          -27.42284625548728,
          30.734026010991442
        ]
      }
    },
    {
      "type": "Feature",
      "properties": {
        "norad_id": 40749,
        "name": "BEIDOU-3S M1S (C57)",
        "group": "beidou",
        "lat": -48.16487299367106,
        "lon": 179.3686567779938,
        "alt_km": 21535.81592407101,
        "timestamp": "2025-12-25T09:48:52.555672+00:00",
        "meta_object_name": "BEIDOU-3S M1S (C57)",
        "meta_object_id": "2015-037B",
        "meta_epoch": "2025-12-25T01:01:53.071104",
        "meta_mean_motion": 1.86253893,
        "meta_eccentricity": 0.000369,
        "meta_inclination": 55.0241,
        "meta_ra_of_asc_node": 308.031,
        "meta_arg_of_pericenter": 2.2616,
        "meta_mean_anomaly": 357.7473,
        "meta_ephemeris_type": 0,
        "meta_classification_type": "U",
        "meta_norad_cat_id": 40749,
        "meta_element_set_no": 999,
        "meta_rev_at_epoch": 7088,
        "meta_bstar": 0,
        "meta_mean_motion_dot": -5.3e-07,
        "meta_mean_motion_ddot": 0,
        "tle_line1": "1 40749U 15037B   25359.04297536 -.00000053  00000+0  00000+0 0  9997",
        "tle_line2": "2 40749  55.0241 308.0310 0003690   2.2616 357.7473  1.86253893 70887"
      },
      "geometry": {
        "type": "Point",
        "coordinates": [
          179.3686567779938,
          -48.16487299367106
        ]
      }
    }
  ]
}